{
    "links": {
        "self": "http://www.neowsapp.com/rest/v1/neo/3667090?api_key=iIulBulltgU6a56xZRHN4H3l9WmuAYTsLGpBGhQ2"
    },
    "id": "3667090",
    "neo_reference_id": "3667090",
    "name": "(2014 GD34)",
    "designation": "2014 GD34",
    "nasa_jpl_url": "http://ssd.jpl.nasa.gov/sbdb.cgi?sstr=3667090",
    "absolute_magnitude_h": 25.6,
    "estimated_diameter": {
        "kilometers": {
            "estimated_diameter_min": 0.0201629919,
            "estimated_diameter_max": 0.0450858206
        },
        "meters": {
            "estimated_diameter_min": 20.1629919443,
            "estimated_diameter_max": 45.0858206172
        },
        "miles": {
            "estimated_diameter_min": 0.0125286985,
            "estimated_diameter_max": 0.0280150214
        },
        "feet": {
            "estimated_diameter_min": 66.1515504905,
            "estimated_diameter_max": 147.9193637137
        }
    },
    "is_potentially_hazardous_asteroid": false,
    "close_approach_data": [
        {
            "close_approach_date": "2014-04-09",
            "close_approach_date_full": "2014-Apr-09 07:55",
            "epoch_date_close_approach": 1397030100000,
            "relative_velocity": {
                "kilometers_per_second": "4.480087504",
                "kilometers_per_hour": "16128.3150144473",
                "miles_per_hour": "10021.507737727"
            },
            "miss_distance": {
                "astronomical": "0.0640247762",
                "lunar": "24.9056379418",
                "kilometers": "9577970.146746694",
                "miles": "5951474.6756406172"
            },
            "orbiting_body": "Earth"
        },
        {
            "close_approach_date": "2030-03-16",
            "close_approach_date_full": "2030-Mar-16 03:47",
            "epoch_date_close_approach": 1899863220000,
            "relative_velocity": {
                "kilometers_per_second": "8.3564060861",
                "kilometers_per_hour": "30083.0619097918",
                "miles_per_hour": "18692.4447738926"
            },
            "miss_distance": {
                "astronomical": "0.299152221",
                "lunar": "116.370213969",
                "kilometers": "44752535.06736927",
                "miles": "27807935.819745126"
            },
            "orbiting_body": "Earth"
        }
    ],
    "orbital_data": {
        "orbit_id": "8",
        "orbit_determination_date": "2017-04-06 08:41:43",
        "first_observation_date": "2014-04-05",
        "last_observation_date": "2014-04-20",
        "data_arc_in_days": 15,
        "observations_used": 21,
        "orbit_uncertainty": "7",
        "minimum_orbit_intersection": ".0628931",
        "jupiter_tisserand_invariant": "5.448",
        "epoch_osculation": "2459000.5",
        "eccentricity": ".08729381609591899",
        "semi_major_axis": "1.150822307555093",
        "inclination": "8.552501374252406",
        "ascending_node_longitude": "22.70680175372311",
        "orbital_period": "450.9317701617718",
        "perihelion_distance": "1.050362636680298",
        "perihelion_argument": "143.6221132527378",
        "aphelion_distance": "1.251281978429888",
        "perihelion_time": "2458976.400640413584",
        "mean_anomaly": "19.23965004283777",
        "mean_motion": ".7983469425337895",
        "equinox": "J2000",
        "orbit_class": {
            "orbit_class_type": "AMO",
            "orbit_class_description": "Near-Earth asteroid orbits similar to that of 1221 Amor",
            "orbit_class_range": "1.017 AU < q (perihelion) < 1.3 AU"
        }
    },
    "is_sentry_object": false
}